$$SOE
2459580.500000000, A.D. 2022-Jan-01 00:00:00.0000, -4.114109797676033E+08, -3.162940536761932E+08, -4.098715857930352E+07,
2459587.500000000, A.D. 2022-Jan-08 00:00:00.0000, -4.055806516055501E+08, -3.221970716192055E+08, -4.037562982452896E+07,
2459594.500000000, A.D. 2022-Jan-15 00:00:00.0000, -3.996099780912990E+08, -3.279885487771829E+08, -3.975012344212125E+07,
2459601.500000000, A.D. 2022-Jan-22 00:00:00.0000, -3.935001782059048E+08, -3.336657889330325E+08, -3.911077242405112E+07,
2459608.500000000, A.D. 2022-Jan-29 00:00:00.0000, -3.872524989926320E+08, -3.392260705273655E+08, -3.845771264312936E+07,
2459615.500000000, A.D. 2022-Feb-05 00:00:00.0000, -3.808682193790579E+08, -3.446666462298722E+08, -3.779108287297508E+07,
2459622.500000000, A.D. 2022-Feb-12 00:00:00.0000, -3.743486519064181E+08, -3.499847435872842E+08, -3.711102510143794E+07,
2459629.500000000, A.D. 2022-Feb-19 00:00:00.0000, -3.676951436955835E+08, -3.551775643799682E+08, -3.641768482287060E+07,
2459636.500000000, A.D. 2022-Feb-26 00:00:00.0000, -3.609090779651113E+08, -3.602422834109592E+08, -3.571121124855846E+07,
2459643.500000000, A.D. 2022-Mar-05 00:00:00.0000, -3.539918759462220E+08, -3.651760473456299E+08, -3.499175750098808E+07,
2459650.500000000, A.D. 2022-Mar-12 00:00:00.0000, -3.469449989775186E+08, -3.699759736694588E+08, -3.425948081846282E+07,
2459657.500000000, A.D. 2022-Mar-19 00:00:00.0000, -3.397699507135790E+08, -3.746391497376163E+08, -3.351454277508895E+07,
2459664.500000000, A.D. 2022-Mar-26 00:00:00.0000, -3.324682794302984E+08, -3.791626319237653E+08, -3.275710951935482E+07,
2459671.500000000, A.D. 2022-Apr-02 00:00:00.0000, -3.250415803641006E+08, -3.835434449253812E+08, -3.198735204268250E+07,
2459678.500000000, A.D. 2022-Apr-09 00:00:00.0000, -3.174914978176333E+08, -3.877785812229227E+08, -3.120544650313672E+07,
2459685.500000000, A.D. 2022-Apr-16 00:00:00.0000, -3.098197266798308E+08, -3.918650000420472E+08, -3.041157458436799E+07,
2459692.500000000, A.D. 2022-Apr-23 00:00:00.0000, -3.020280146349746E+08, -3.957996247386886E+08, -2.960592368566704E+07,
2459699.500000000, A.D. 2022-Apr-30 00:00:00.0000, -2.941181669373483E+08, -3.995793408569707E+08, -2.878868695603585E+07,
2459706.500000000, A.D. 2022-May-07 00:00:00.0000, -2.860920506963862E+08, -4.032009968392175E+08, -2.796006361549592E+07,
2459713.500000000, A.D. 2022-May-14 00:00:00.0000, -2.779515972915872E+08, -4.066614043555056E+08, -2.712025944363049E+07,
2459720.500000000, A.D. 2022-May-21 00:00:00.0000, -2.696988049565206E+08, -4.099573374988483E+08, -2.626948718762404E+07,
2459727.500000000, A.D. 2022-May-28 00:00:00.0000, -2.613357420181267E+08, -4.130855318096986E+08, -2.540796692473191E+07,
2459734.500000000, A.D. 2022-Jun-04 00:00:00.0000, -2.528645505212030E+08, -4.160426834486247E+08, -2.453592643077117E+07,
2459741.500000000, A.D. 2022-Jun-11 00:00:00.0000, -2.442874501006226E+08, -4.188254485225945E+08, -2.365360156849590E+07,
2459748.500000000, A.D. 2022-Jun-18 00:00:00.0000, -2.356067420706080E+08, -4.214304425607525E+08, -2.276123669920254E+07,
2459755.500000000, A.D. 2022-Jun-25 00:00:00.0000, -2.268248137105673E+08, -4.238542401831312E+08, -2.185908512388134E+07,
2459762.500000000, A.D. 2022-Jul-02 00:00:00.0000, -2.179441426230592E+08, -4.260933750391158E+08, -2.094740957244825E+07,
2459769.500000000, A.D. 2022-Jul-09 00:00:00.0000, -2.089673007836087E+08, -4.281443398505930E+08, -2.002648276321989E+07,
2459776.500000000, A.D. 2022-Jul-16 00:00:00.0000, -1.998969583477583E+08, -4.300035854896920E+08, -1.909658793985292E+07,
2459783.500000000, A.D. 2022-Jul-23 00:00:00.0000, -1.907358894237058E+08, -4.316675190268310E+08, -1.815801917847580E+07,
2459790.500000000, A.D. 2022-Jul-30 00:00:00.0000, -1.814869797359076E+08, -4.331325041181077E+08, -1.721108174761236E+07,
2459797.500000000, A.D. 2022-Aug-06 00:00:00.0000, -1.721532325908768E+08, -4.343948631019241E+08, -1.625609279890323E+07,
2459804.500000000, A.D. 2022-Aug-13 00:00:00.0000, -1.627377739791911E+08, -4.354508780701292E+08, -1.529338208876845E+07,
2459811.500000000, A.D. 2022-Aug-20 00:00:00.0000, -1.532438583937288E+08, -4.362967914377111E+08, -1.432329262884161E+07,
2459818.500000000, A.D. 2022-Aug-27 00:00:00.0000, -1.436748753061741E+08, -4.369288067597729E+08, -1.334618133144414E+07,
2459825.500000000, A.D. 2022-Sep-03 00:00:00.0000, -1.340343560634659E+08, -4.373430899306076E+08, -1.236241968259284E+07,
2459832.500000000, A.D. 2022-Sep-10 00:00:00.0000, -1.243259811230420E+08, -4.375357707679053E+08, -1.137239444965735E+07,
2459839.500000000, A.D. 2022-Sep-17 00:00:00.0000, -1.145535876059621E+08, -4.375029450139273E+08, -1.037650842737138E+07,
2459846.500000000, A.D. 2022-Sep-24 00:00:00.0000, -1.047211771156679E+08, -4.372406768377300E+08, -9.375181232723027E+06,
2459853.500000000, A.D. 2022-Oct-01 00:00:00.0000, -9.483292358999282E+07, -4.367450018968229E+08, -8.368850173305213E+06,
2459860.500000000, A.D. 2022-Oct-08 00:00:00.0000, -8.489318078564160E+07, -4.360119304752044E+08, -7.357971184475154E+06,
2459867.500000000, A.D. 2022-Oct-15 00:00:00.0000, -7.490649033201440E+07, -4.350374495404813E+08, -6.343019652394891E+06,
2459874.500000000, A.D. 2022-Oct-22 00:00:00.0000, -6.487759253866372E+07, -4.338175254486755E+08, -5.324491060910374E+06,
2459881.500000000, A.D. 2022-Oct-29 00:00:00.0000, -5.481143745836043E+07, -4.323481099395228E+08, -4.302901903682858E+06,
2459888.500000000, A.D. 2022-Nov-05 00:00:00.0000, -4.471319410423786E+07, -4.306251467364175E+08, -3.278790830136895E+06,
2459895.500000000, A.D. 2022-Nov-12 00:00:00.0000, -3.458825978164958E+07, -4.286445775433691E+08, -2.252719740902364E+06,
2459902.500000000, A.D. 2022-Nov-19 00:00:00.0000, -2.444227024684238E+07, -4.264023484560418E+08, -1.225274843659699E+06,
2459909.500000000, A.D. 2022-Nov-26 00:00:00.0000, -1.428111041908828E+07, -4.238944172504779E+08, -1.970677242802382E+05,
2459916.500000000, A.D. 2022-Dec-03 00:00:00.0000, -4.110925463968622E+06, -4.211167616301813E+08, 8.312635526973009E+05,
2459923.500000000, A.D. 2022-Dec-10 00:00:00.0000, 6.061867821236876E+06, -4.180653884854012E+08, 1.859053314120263E+06,
2459930.500000000, A.D. 2022-Dec-17 00:00:00.0000, 1.623056937715782E+07, -4.147363442678534E+08, 2.885607117422223E+06,
2459937.500000000, A.D. 2022-Dec-24 00:00:00.0000, 2.638818415753494E+07, -4.111257266330616E+08, 3.910200547245264E+06,
2459944.500000000, A.D. 2022-Dec-31 00:00:00.0000, 3.652741071688777E+07, -4.072296973371738E+08, 4.932077950365573E+06,
2459951.500000000, A.D. 2023-Jan-07 00:00:00.0000, 4.664063029068328E+07, -4.030444955258574E+08, 5.950451182643145E+06,
2459958.500000000, A.D. 2023-Jan-14 00:00:00.0000, 5.671989446799856E+07, -3.985664510209109E+08, 6.964498596681833E+06,
2459965.500000000, A.D. 2023-Jan-21 00:00:00.0000, 6.675691089197420E+07, -3.937920008804327E+08, 7.973364078863949E+06,
2459972.500000000, A.D. 2023-Jan-28 00:00:00.0000, 7.674303075222711E+07, -3.887177095341418E+08, 8.976155793495297E+06,
2459979.500000000, A.D. 2023-Feb-04 00:00:00.0000, 8.666923797353488E+07, -3.833402895759443E+08, 9.971944912599832E+06,
2459986.500000000, A.D. 2023-Feb-11 00:00:00.0000, 9.652613843624108E+07, -3.776566235178468E+08, 1.095976449411735E+07,
2459993.500000000, A.D. 2023-Feb-18 00:00:00.0000, 1.063039493160041E+08, -3.716637874376862E+08, 1.193860846294433E+07,
2460000.500000000, A.D. 2023-Feb-25 00:00:00.0000, 1.159924889786559E+08, -3.653590767891991E+08, 1.290743067564988E+07,
2460007.500000000, A.D. 2023-Mar-04 00:00:00.0000, 1.255811677290692E+08, -3.587400344572659E+08, 1.386514408157653E+07,
2460014.500000000, A.D. 2023-Mar-11 00:00:00.0000, 1.350589796652642E+08, -3.518044811510055E+08, 1.481062000075074E+07,
2460021.500000000, A.D. 2023-Mar-18 00:00:00.0000, 1.444144959361222E+08, -3.445505482658916E+08, 1.574268753592630E+07,
2460028.500000000, A.D. 2023-Mar-25 00:00:00.0000, 1.536358598879211E+08, -3.369767133299783E+08, 1.666013312513886E+07,
2460035.500000000, A.D. 2023-Apr-01 00:00:00.0000, 1.627107848368239E+08, -3.290818376910100E+08, 1.756170026038559E+07,
2460042.500000000, A.D. 2023-Apr-08 00:00:00.0000, 1.716265541949101E+08, -3.208652052451486E+08, 1.844608956466481E+07,
2460049.500000000, A.D. 2023-Apr-15 00:00:00.0000, 1.803700219863533E+08, -3.123265633059416E+08, 1.931195938975991E+07,
2460056.500000000, A.D. 2023-Apr-22 00:00:00.0000, 1.889276159687436E+08, -3.034661686170979E+08, 2.015792656034970E+07,
2460063.500000000, A.D. 2023-Apr-29 00:00:00.0000, 1.972853465332094E+08, -2.942848361635479E+08, 2.098256724173917E+07,
2460070.500000000, A.D. 2023-May-06 00:00:00.0000, 2.054288200901183E+08, -2.847839888558654E+08, 2.178441828538550E+07,
2460077.500000000, A.D. 2023-May-13 00:00:00.0000, 2.133432564537688E+08, -2.749657087752815E+08, 2.256197911816691E+07,
2460084.500000000, A.D. 2023-May-20 00:00:00.0000, 2.210135109686446E+08, -2.648327901917786E+08, 2.331371416467151E+07,
2460091.500000000, A.D. 2023-May-27 00:00:00.0000, 2.284241020901618E+08, -2.543887940251181E+08, 2.403805583408266E+07,
2460098.500000000, A.D. 2023-Jun-03 00:00:00.0000, 2.355592449977004E+08, -2.436381032734116E+08, 2.473340812006305E+07,
2460105.500000000, A.D. 2023-Jun-10 00:00:00.0000, 2.424028917714119E+08, -2.325859788745634E+08, 2.539815086015600E+07,
2460112.500000000, A.D. 2023-Jun-17 00:00:00.0000, 2.489387787020924E+08, -2.212386154039598E+08, 2.603064468780243E+07,
2460119.500000000, A.D. 2023-Jun-24 00:00:00.0000, 2.551504814921211E+08, -2.096031957820102E+08, 2.662923669352645E+07,
2460126.500000000, A.D. 2023-Jul-01 00:00:00.0000, 2.610214789777955E+08, -1.976879432797700E+08, 2.719226687560665E+07,
2460133.500000000, A.D. 2023-Jul-08 00:00:00.0000, 2.665352239877363E+08, -1.855021690056885E+08, 2.771807562836220E+07,
2460140.500000000, A.D. 2023-Jul-15 00:00:00.0000, 2.716752202302569E+08, -1.730563165943531E+08, 2.820501216804190E+07,
$$EOE